CCSDS_OMM_VERS = 2.0
CREATION_DATE  = 
ORIGINATOR     = 

OBJECT_NAME    = DELTA 2 R/B(1)
OBJECT_ID      = 1990-008B
CENTER_NAME    = EARTH
REF_FRAME      = TEME
TIME_SYSTEM    = UTC
MEAN_ELEMENT_THEORY = SGP/SGP4

EPOCH          = 2026-02-28T04:41:07.954944
MEAN_MOTION    = 15.54506187
ECCENTRICITY   = .00874134
INCLINATION    = 35.6026
RA_OF_ASC_NODE = 237.0992
ARG_OF_PERICENTER = 170.5395
MEAN_ANOMALY   = 189.7008

EPHEMERIS_TYPE = 0
CLASSIFICATION_TYPE = U
NORAD_CAT_ID   = 20453
ELEMENT_SET_NO = 999
REV_AT_EPOCH   = 92465
BSTAR          = .80506578E-3
MEAN_MOTION_DOT = .65446E-3
MEAN_MOTION_DDOT = 0

CCSDS_OMM_VERS = 2.0
CREATION_DATE  = 
ORIGINATOR     = 

OBJECT_NAME    = COSMOS 2058
OBJECT_ID      = 1990-010A
CENTER_NAME    = EARTH
REF_FRAME      = TEME
TIME_SYSTEM    = UTC
MEAN_ELEMENT_THEORY = SGP/SGP4

EPOCH          = 2026-02-28T05:54:26.629920
MEAN_MOTION    = 15.11220712
ECCENTRICITY   = .00100345
INCLINATION    = 82.4665
RA_OF_ASC_NODE = 56.7318
ARG_OF_PERICENTER = 14.8568
MEAN_ANOMALY   = 345.2954

EPHEMERIS_TYPE = 0
CLASSIFICATION_TYPE = U
NORAD_CAT_ID   = 20465
ELEMENT_SET_NO = 999
REV_AT_EPOCH   = 94081
BSTAR          = .25308688E-3
MEAN_MOTION_DOT = .4284E-4
MEAN_MOTION_DDOT = 0

CCSDS_OMM_VERS = 2.0
CREATION_DATE  = 
ORIGINATOR     = 

OBJECT_NAME    = SL-14 R/B
OBJECT_ID      = 1990-010B
CENTER_NAME    = EARTH
REF_FRAME      = TEME
TIME_SYSTEM    = UTC
MEAN_ELEMENT_THEORY = SGP/SGP4

EPOCH          = 2026-02-28T02:37:37.213536
MEAN_MOTION    = 14.83559342
ECCENTRICITY   = .00191693
INCLINATION    = 82.4994
RA_OF_ASC_NODE = 276.3899
ARG_OF_PERICENTER = 335.6765
MEAN_ANOMALY   = 24.3543

EPHEMERIS_TYPE = 0
CLASSIFICATION_TYPE = U
NORAD_CAT_ID   = 20466
ELEMENT_SET_NO = 999
REV_AT_EPOCH   = 92706
BSTAR          = .47961514E-4
MEAN_MOTION_DOT = .42E-5
MEAN_MOTION_DDOT = 0

CCSDS_OMM_VERS = 2.0
CREATION_DATE  = 
ORIGINATOR     = 

OBJECT_NAME    = SL-14 R/B
OBJECT_ID      = 1990-018B
CENTER_NAME    = EARTH
REF_FRAME      = TEME
TIME_SYSTEM    = UTC
MEAN_ELEMENT_THEORY = SGP/SGP4

EPOCH          = 2026-02-28T04:27:14.548320
MEAN_MOTION    = 14.82132424
ECCENTRICITY   = .00175157
INCLINATION    = 82.5188
RA_OF_ASC_NODE = 231.9740
ARG_OF_PERICENTER = 120.8413
MEAN_ANOMALY   = 239.4527

EPHEMERIS_TYPE = 0
CLASSIFICATION_TYPE = U
NORAD_CAT_ID   = 20511
ELEMENT_SET_NO = 999
REV_AT_EPOCH   = 92117
BSTAR          = .67818068E-4
MEAN_MOTION_DOT = .565E-5
MEAN_MOTION_DDOT = 0

CCSDS_OMM_VERS = 2.0
CREATION_DATE  = 
ORIGINATOR     = 

OBJECT_NAME    = HST
OBJECT_ID      = 1990-037B
CENTER_NAME    = EARTH
REF_FRAME      = TEME
TIME_SYSTEM    = UTC
MEAN_ELEMENT_THEORY = SGP/SGP4

EPOCH          = 2026-02-28T05:16:46.317792
MEAN_MOTION    = 15.29307981
ECCENTRICITY   = .00014423
INCLINATION    = 28.4697
RA_OF_ASC_NODE = 104.5911
ARG_OF_PERICENTER = 29.0011
MEAN_ANOMALY   = 331.0665

EPHEMERIS_TYPE = 0
CLASSIFICATION_TYPE = U
NORAD_CAT_ID   = 20580
ELEMENT_SET_NO = 999
REV_AT_EPOCH   = 77186
BSTAR          = .25546244E-3
MEAN_MOTION_DOT = .7705E-4
MEAN_MOTION_DDOT = 0

CCSDS_OMM_VERS = 2.0
CREATION_DATE  = 
ORIGINATOR     = 

OBJECT_NAME    = SL-16 R/B
OBJECT_ID      = 1990-046B
CENTER_NAME    = EARTH
REF_FRAME      = TEME
TIME_SYSTEM    = UTC
MEAN_ELEMENT_THEORY = SGP/SGP4

EPOCH          = 2026-02-28T03:41:28.931712
MEAN_MOTION    = 14.15015284
ECCENTRICITY   = .00159993
INCLINATION    = 71.0010
RA_OF_ASC_NODE = 317.9414
ARG_OF_PERICENTER = 312.5346
MEAN_ANOMALY   = 47.4425

EPHEMERIS_TYPE = 0
CLASSIFICATION_TYPE = U
NORAD_CAT_ID   = 20625
ELEMENT_SET_NO = 999
REV_AT_EPOCH   = 84704
BSTAR          = -.30282059E-4
MEAN_MOTION_DOT = -.106E-5
MEAN_MOTION_DDOT = 0

CCSDS_OMM_VERS = 2.0
CREATION_DATE  = 
ORIGINATOR     = 

OBJECT_NAME    = COSMOS 2084
OBJECT_ID      = 1990-055A
CENTER_NAME    = EARTH
REF_FRAME      = TEME
TIME_SYSTEM    = UTC
MEAN_ELEMENT_THEORY = SGP/SGP4

EPOCH          = 2026-02-28T06:58:53.189760
MEAN_MOTION    = 15.05580737
ECCENTRICITY   = .00184725
INCLINATION    = 62.7915
RA_OF_ASC_NODE = 7.6307
ARG_OF_PERICENTER = 187.8103
MEAN_ANOMALY   = 172.2713

EPHEMERIS_TYPE = 0
CLASSIFICATION_TYPE = U
NORAD_CAT_ID   = 20663
ELEMENT_SET_NO = 999
REV_AT_EPOCH   = 93490
BSTAR          = .23148254E-3
MEAN_MOTION_DOT = .3162E-4
MEAN_MOTION_DDOT = 0

CCSDS_OMM_VERS = 2.0
CREATION_DATE  = 
ORIGINATOR     = 

OBJECT_NAME    = SL-6 R/B(2)
OBJECT_ID      = 1990-055D
CENTER_NAME    = EARTH
REF_FRAME      = TEME
TIME_SYSTEM    = UTC
MEAN_ELEMENT_THEORY = SGP/SGP4

EPOCH          = 2026-02-28T01:28:08.025600
MEAN_MOTION    = 15.03541408
ECCENTRICITY   = .00232577
INCLINATION    = 62.7825
RA_OF_ASC_NODE = 286.5941
ARG_OF_PERICENTER = 344.5936
MEAN_ANOMALY   = 15.4452

EPHEMERIS_TYPE = 0
CLASSIFICATION_TYPE = U
NORAD_CAT_ID   = 20666
ELEMENT_SET_NO = 999
REV_AT_EPOCH   = 93674
BSTAR          = .16479281E-3
MEAN_MOTION_DOT = .2071E-4
MEAN_MOTION_DDOT = 0

CCSDS_OMM_VERS = 2.0
CREATION_DATE  = 
ORIGINATOR     = 

OBJECT_NAME    = SL-8 R/B
OBJECT_ID      = 1990-078B
CENTER_NAME    = EARTH
REF_FRAME      = TEME
TIME_SYSTEM    = UTC
MEAN_ELEMENT_THEORY = SGP/SGP4

EPOCH          = 2026-02-27T23:10:06.646944
MEAN_MOTION    = 14.88690683
ECCENTRICITY   = .0364539
INCLINATION    = 82.8996
RA_OF_ASC_NODE = 260.0555
ARG_OF_PERICENTER = 46.6353
MEAN_ANOMALY   = 316.4624

EPHEMERIS_TYPE = 0
CLASSIFICATION_TYPE = U
NORAD_CAT_ID   = 20775
ELEMENT_SET_NO = 999
REV_AT_EPOCH   = 80785
BSTAR          = .48478E-3
MEAN_MOTION_DOT = .16517E-3
MEAN_MOTION_DDOT = 0

CCSDS_OMM_VERS = 2.0
CREATION_DATE  = 
ORIGINATOR     = 

OBJECT_NAME    = SL-8 R/B
OBJECT_ID      = 1991-006B
CENTER_NAME    = EARTH
REF_FRAME      = TEME
TIME_SYSTEM    = UTC
MEAN_ELEMENT_THEORY = SGP/SGP4

EPOCH          = 2026-02-28T07:38:20.719104
MEAN_MOTION    = 13.77493087
ECCENTRICITY   = .00235459
INCLINATION    = 82.9462
RA_OF_ASC_NODE = 177.0122
ARG_OF_PERICENTER = 63.5708
MEAN_ANOMALY   = 315.1958

EPHEMERIS_TYPE = 0
CLASSIFICATION_TYPE = U
NORAD_CAT_ID   = 21088
ELEMENT_SET_NO = 999
REV_AT_EPOCH   = 76278
BSTAR          = .26568033E-4
MEAN_MOTION_DOT = .42E-6
MEAN_MOTION_DDOT = 0

CCSDS_OMM_VERS = 2.0
CREATION_DATE  = 
ORIGINATOR     = 

OBJECT_NAME    = OKEAN-3
OBJECT_ID      = 1991-039A
CENTER_NAME    = EARTH
REF_FRAME      = TEME
TIME_SYSTEM    = UTC
MEAN_ELEMENT_THEORY = SGP/SGP4

EPOCH          = 2026-02-28T05:40:24.376800
MEAN_MOTION    = 15.04725612
ECCENTRICITY   = .00145573
INCLINATION    = 82.5200
RA_OF_ASC_NODE = 345.9992
ARG_OF_PERICENTER = 11.0364
MEAN_ANOMALY   = 349.1179

EPHEMERIS_TYPE = 0
CLASSIFICATION_TYPE = U
NORAD_CAT_ID   = 21397
ELEMENT_SET_NO = 999
REV_AT_EPOCH   = 86361
BSTAR          = .23995159E-3
MEAN_MOTION_DOT = .3413E-4
MEAN_MOTION_DDOT = 0

CCSDS_OMM_VERS = 2.0
CREATION_DATE  = 
ORIGINATOR     = 

OBJECT_NAME    = COSMOS 2151
OBJECT_ID      = 1991-042A
CENTER_NAME    = EARTH
REF_FRAME      = TEME
TIME_SYSTEM    = UTC
MEAN_ELEMENT_THEORY = SGP/SGP4

EPOCH          = 2026-02-28T05:04:14.025216
MEAN_MOTION    = 15.00061548
ECCENTRICITY   = .00141444
INCLINATION    = 82.4934
RA_OF_ASC_NODE = 92.8215
ARG_OF_PERICENTER = 91.9351
MEAN_ANOMALY   = 268.3493

EPHEMERIS_TYPE = 0
CLASSIFICATION_TYPE = U
NORAD_CAT_ID   = 21422
ELEMENT_SET_NO = 999
REV_AT_EPOCH   = 86177
BSTAR          = .13169175E-3
MEAN_MOTION_DOT = .167E-4
MEAN_MOTION_DDOT = 0

