DELTA 2 R/B(1)          
1 20453U 90008B   26059.19523096  .00065446  00000+0  80507-3 0  9995
2 20453  35.6026 237.0992 0087413 170.5395 189.7008 15.54506187924654
COSMOS 2058             
1 20465U 90010A   26059.24614155  .00004284  00000+0  25309-3 0  9996
2 20465  82.4665  56.7318 0010034  14.8568 345.2954 15.11220712940816
SL-14 R/B               
1 20466U 90010B   26059.10945849  .00000420  00000+0  47962-4 0  9997
2 20466  82.4994 276.3899 0019169 335.6765  24.3543 14.83559342927060
SL-14 R/B               
1 20511U 90018B   26059.18558505  .00000565  00000+0  67818-4 0  9995
2 20511  82.5188 231.9740 0017515 120.8413 239.4527 14.82132424921170
HST                     
1 20580U 90037B   26059.21998053  .00007705  00000+0  25546-3 0  9996
2 20580  28.4697 104.5911 0001442  29.0011 331.0665 15.29307981771866
SL-16 R/B               
1 20625U 90046B   26059.15380708 -.00000106  00000+0 -30282-4 0  9995
2 20625  71.0010 317.9414 0015999 312.5346  47.4425 14.15015284847042
COSMOS 2084             
1 20663U 90055A   26059.29089340  .00003162  00000+0  23148-3 0  9995
2 20663  62.7915   7.6307 0018472 187.8103 172.2713 15.05580737934901
SL-6 R/B(2)             
1 20666U 90055D   26059.06120400  .00002071  00000+0  16479-3 0  9993
2 20666  62.7825 286.5941 0023257 344.5936  15.4452 15.03541408936741
SL-8 R/B                
1 20775U 90078B   26058.96535471  .00016517  00000+0  48478-3 0  9999
2 20775  82.8996 260.0555 0364539  46.6353 316.4624 14.88690683807852
SL-8 R/B                
1 21088U 91006B   26059.31829536  .00000042  00000+0  26568-4 0  9990
2 21088  82.9462 177.0122 0023545  63.5708 315.1958 13.77493087762781
OKEAN-3                 
1 21397U 91039A   26059.23639325  .00003413  00000+0  23995-3 0  9990
2 21397  82.5200 345.9992 0014557  11.0364 349.1179 15.04725612863610
COSMOS 2151             
1 21422U 91042A   26059.21127344  .00001670  00000+0  13169-3 0  9999
2 21422  82.4934  92.8215 0014144  91.9351 268.3493 15.00061548861776
